RASSVET-3 9             
1 68368U 26061J   26110.22351333  .00090156  17727-5  27417-3 0  9992
2 68368  82.2971  77.5134 0019603 327.4404  32.5658 15.91565255  4379
RASSVET-3 10            
1 68369U 26061K   26110.85735736  .00122143  42346-5  36432-3 0  9999
2 68369  82.2974  76.8073 0020251 324.9518  35.0420 15.91936376  4478
RASSVET-3 11            
1 68370U 26061L   26110.85673049  .00120981  41331-5  36071-3 0  9999
2 68370  82.2976  76.8062 0019963 324.6585  35.3363 15.91953600  4477
RASSVET-3 12            
1 68371U 26061M   26110.22515962  .00094648  20939-5  27763-3 0  9999
2 68371  82.2970  77.5163 0019895 327.2812  32.7227 15.92254546  4371
RASSVET-3 13            
1 68372U 26061N   26110.47864128 -.00218932  14799-4 -72294-3 0  9999
2 68372  82.2967  77.2332 0018958 328.2762  31.7365 15.90087310  4415
RASSVET-3 14            
1 68373U 26061P   26110.79114994 -.00189508  10745-4 -65652-3 0  9997
2 68373  82.2966  76.8703 0022395 328.1807  31.8110 15.89016611  4469
RASSVET-3 15            
1 68374U 26061Q   26110.22552479  .00078979  10695-5  25639-3 0  9993
2 68374  82.2971  77.5163 0018453 327.8521  32.1625 15.90318996  4371
RASSVET-3 16            
1 68375U 26061R   26110.84638477  .00074248  00000+0  33922-3 0  9997
2 68375  82.2958  76.9509 0017785 335.1754  24.8657 15.83258811  4465
SUPERVIEW NEO-2 OBJECT A
1 68377U 26062A   26110.14210197  .00001961  00000+0  94982-4 0  9994
2 68377  97.4407 118.2769 0001638  81.9117 278.2304 15.19719041  3831
SUPERVIEW NEO-2 OBJECT B
1 68378U 26062B   26110.99806870  .00002195  00000+0  10595-3 0  9994
2 68378  97.4395 119.1221 0001620  87.4083 272.7337 15.19724745  3961
STARLINK-36296          
1 68380U 26063A   26110.56376086  .00162144  00000+0  10651-2 0  9995
2 68380  97.2865 252.5730 0001078  95.0668 265.0721 15.75241029  4247
STARLINK-37111          
1 68381U 26063B   26110.37670222  .00135047  00000+0  89157-3 0  9994
2 68381  97.2862 252.2100 0000263  79.9755 280.1540 15.75202088  4201
STARLINK-36946          
1 68382U 26063C   26110.54989794  .00254167  00000+0  12846-2 0  9996
2 68382  97.2846 252.4336 0000514  47.9158 312.2154 15.80896430  4235
STARLINK-37121          
1 68383U 26063D   26110.57151396  .00083906  00000+0  55769-3 0  9992
2 68383  97.2871 252.4040 0001401  61.4389 298.7017 15.75198470  4238
STARLINK-37137          
1 68384U 26063E   26110.59163637  .00226818  00000+0  14769-2 0  9991
2 68384  97.2853 252.3762 0002439  11.3253 348.8067 15.75260532  4236
