[{"OBJECT_NAME":"RASSVET-3 9","OBJECT_ID":"2026-061J","EPOCH":"2026-04-20T05:21:51.551712","MEAN_MOTION":15.91565255,"ECCENTRICITY":0.0019603,"INCLINATION":82.2971,"RA_OF_ASC_NODE":77.5134,"ARG_OF_PERICENTER":327.4404,"MEAN_ANOMALY":32.5658,"EPHEMERIS_TYPE":0,"CLASSIFICATION_TYPE":"U","NORAD_CAT_ID":68368,"ELEMENT_SET_NO":999,"REV_AT_EPOCH":437,"BSTAR":0.00027417,"MEAN_MOTION_DOT":0.00090156,"MEAN_MOTION_DDOT":1.7727e-6},{"OBJECT_NAME":"RASSVET-3 10","OBJECT_ID":"2026-061K","EPOCH":"2026-04-20T20:34:35.675904","MEAN_MOTION":15.91936376,"ECCENTRICITY":0.0020251,"INCLINATION":82.2974,"RA_OF_ASC_NODE":76.8073,"ARG_OF_PERICENTER":324.9518,"MEAN_ANOMALY":35.042,"EPHEMERIS_TYPE":0,"CLASSIFICATION_TYPE":"U","NORAD_CAT_ID":68369,"ELEMENT_SET_NO":999,"REV_AT_EPOCH":447,"BSTAR":0.00036431576,"MEAN_MOTION_DOT":0.00122143,"MEAN_MOTION_DDOT":4.234569e-6},{"OBJECT_NAME":"RASSVET-3 11","OBJECT_ID":"2026-061L","EPOCH":"2026-04-20T20:33:41.514336","MEAN_MOTION":15.919536,"ECCENTRICITY":0.0019963,"INCLINATION":82.2976,"RA_OF_ASC_NODE":76.8062,"ARG_OF_PERICENTER":324.6585,"MEAN_ANOMALY":35.3363,"EPHEMERIS_TYPE":0,"CLASSIFICATION_TYPE":"U","NORAD_CAT_ID":68370,"ELEMENT_SET_NO":999,"REV_AT_EPOCH":447,"BSTAR":0.00036071295,"MEAN_MOTION_DOT":0.00120981,"MEAN_MOTION_DDOT":4.133101e-6},{"OBJECT_NAME":"RASSVET-3 12","OBJECT_ID":"2026-061M","EPOCH":"2026-04-20T05:24:13.791168","MEAN_MOTION":15.92254546,"ECCENTRICITY":0.0019895,"INCLINATION":82.297,"RA_OF_ASC_NODE":77.5163,"ARG_OF_PERICENTER":327.2812,"MEAN_ANOMALY":32.7227,"EPHEMERIS_TYPE":0,"CLASSIFICATION_TYPE":"U","NORAD_CAT_ID":68371,"ELEMENT_SET_NO":999,"REV_AT_EPOCH":437,"BSTAR":0.00027763,"MEAN_MOTION_DOT":0.00094648,"MEAN_MOTION_DDOT":2.0939e-6},{"OBJECT_NAME":"RASSVET-3 13","OBJECT_ID":"2026-061N","EPOCH":"2026-04-20T11:29:14.606592","MEAN_MOTION":15.9008731,"ECCENTRICITY":0.00189589,"INCLINATION":82.2967,"RA_OF_ASC_NODE":77.2332,"ARG_OF_PERICENTER":328.2762,"MEAN_ANOMALY":31.7365,"EPHEMERIS_TYPE":0,"CLASSIFICATION_TYPE":"U","NORAD_CAT_ID":68372,"ELEMENT_SET_NO":999,"REV_AT_EPOCH":441,"BSTAR":-0.00072294307,"MEAN_MOTION_DOT":-0.00218932,"MEAN_MOTION_DDOT":1.4799128e-5},{"OBJECT_NAME":"RASSVET-3 14","OBJECT_ID":"2026-061P","EPOCH":"2026-04-20T18:59:15.354816","MEAN_MOTION":15.89016611,"ECCENTRICITY":0.00223956,"INCLINATION":82.2966,"RA_OF_ASC_NODE":76.8703,"ARG_OF_PERICENTER":328.1807,"MEAN_ANOMALY":31.811,"EPHEMERIS_TYPE":0,"CLASSIFICATION_TYPE":"U","NORAD_CAT_ID":68373,"ELEMENT_SET_NO":999,"REV_AT_EPOCH":446,"BSTAR":-0.0006565232,"MEAN_MOTION_DOT":-0.00189508,"MEAN_MOTION_DDOT":1.0744833e-5},{"OBJECT_NAME":"RASSVET-3 15","OBJECT_ID":"2026-061Q","EPOCH":"2026-04-20T05:24:45.341856","MEAN_MOTION":15.90318996,"ECCENTRICITY":0.0018453,"INCLINATION":82.2971,"RA_OF_ASC_NODE":77.5163,"ARG_OF_PERICENTER":327.8521,"MEAN_ANOMALY":32.1625,"EPHEMERIS_TYPE":0,"CLASSIFICATION_TYPE":"U","NORAD_CAT_ID":68374,"ELEMENT_SET_NO":999,"REV_AT_EPOCH":437,"BSTAR":0.00025639,"MEAN_MOTION_DOT":0.00078979,"MEAN_MOTION_DDOT":1.0695e-6},{"OBJECT_NAME":"RASSVET-3 16","OBJECT_ID":"2026-061R","EPOCH":"2026-04-20T20:18:47.644128","MEAN_MOTION":15.83258811,"ECCENTRICITY":0.00177859,"INCLINATION":82.2958,"RA_OF_ASC_NODE":76.9509,"ARG_OF_PERICENTER":335.1754,"MEAN_ANOMALY":24.8657,"EPHEMERIS_TYPE":0,"CLASSIFICATION_TYPE":"U","NORAD_CAT_ID":68375,"ELEMENT_SET_NO":999,"REV_AT_EPOCH":446,"BSTAR":0.00033922415,"MEAN_MOTION_DOT":0.00074248,"MEAN_MOTION_DDOT":0},{"OBJECT_NAME":"SUPERVIEW NEO-2 OBJECT A","OBJECT_ID":"2026-062A","EPOCH":"2026-04-20T03:24:37.610208","MEAN_MOTION":15.19719041,"ECCENTRICITY":0.00016381,"INCLINATION":97.4407,"RA_OF_ASC_NODE":118.2769,"ARG_OF_PERICENTER":81.9117,"MEAN_ANOMALY":278.2304,"EPHEMERIS_TYPE":0,"CLASSIFICATION_TYPE":"U","NORAD_CAT_ID":68377,"ELEMENT_SET_NO":999,"REV_AT_EPOCH":383,"BSTAR":9.498245e-5,"MEAN_MOTION_DOT":1.961e-5,"MEAN_MOTION_DDOT":0},{"OBJECT_NAME":"SUPERVIEW NEO-2 OBJECT B","OBJECT_ID":"2026-062B","EPOCH":"2026-04-20T23:57:13.135680","MEAN_MOTION":15.19724745,"ECCENTRICITY":0.000162,"INCLINATION":97.4395,"RA_OF_ASC_NODE":119.1221,"ARG_OF_PERICENTER":87.4083,"MEAN_ANOMALY":272.7337,"EPHEMERIS_TYPE":0,"CLASSIFICATION_TYPE":"U","NORAD_CAT_ID":68378,"ELEMENT_SET_NO":999,"REV_AT_EPOCH":396,"BSTAR":0.00010595,"MEAN_MOTION_DOT":2.195e-5,"MEAN_MOTION_DDOT":0},{"OBJECT_NAME":"STARLINK-36296","OBJECT_ID":"2026-063A","EPOCH":"2026-04-20T13:31:48.938304","MEAN_MOTION":15.75241029,"ECCENTRICITY":0.00010781,"INCLINATION":97.2865,"RA_OF_ASC_NODE":252.573,"ARG_OF_PERICENTER":95.0668,"MEAN_ANOMALY":265.0721,"EPHEMERIS_TYPE":0,"CLASSIFICATION_TYPE":"U","NORAD_CAT_ID":68380,"ELEMENT_SET_NO":999,"REV_AT_EPOCH":424,"BSTAR":0.0010650924,"MEAN_MOTION_DOT":0.00162144,"MEAN_MOTION_DDOT":0},{"OBJECT_NAME":"STARLINK-37111","OBJECT_ID":"2026-063B","EPOCH":"2026-04-20T09:02:27.071808","MEAN_MOTION":15.75202088,"ECCENTRICITY":2.638e-5,"INCLINATION":97.2862,"RA_OF_ASC_NODE":252.21,"ARG_OF_PERICENTER":79.9755,"MEAN_ANOMALY":280.154,"EPHEMERIS_TYPE":0,"CLASSIFICATION_TYPE":"U","NORAD_CAT_ID":68381,"ELEMENT_SET_NO":999,"REV_AT_EPOCH":420,"BSTAR":0.00089157251,"MEAN_MOTION_DOT":0.00135047,"MEAN_MOTION_DDOT":0},{"OBJECT_NAME":"STARLINK-36946","OBJECT_ID":"2026-063C","EPOCH":"2026-04-20T13:11:51.182016","MEAN_MOTION":15.8089643,"ECCENTRICITY":5.146e-5,"INCLINATION":97.2846,"RA_OF_ASC_NODE":252.4336,"ARG_OF_PERICENTER":47.9158,"MEAN_ANOMALY":312.2154,"EPHEMERIS_TYPE":0,"CLASSIFICATION_TYPE":"U","NORAD_CAT_ID":68382,"ELEMENT_SET_NO":999,"REV_AT_EPOCH":423,"BSTAR":0.0012846243,"MEAN_MOTION_DOT":0.00254167,"MEAN_MOTION_DDOT":0},{"OBJECT_NAME":"STARLINK-37121","OBJECT_ID":"2026-063D","EPOCH":"2026-04-20T13:42:58.806144","MEAN_MOTION":15.7519847,"ECCENTRICITY":0.0001401,"INCLINATION":97.2871,"RA_OF_ASC_NODE":252.404,"ARG_OF_PERICENTER":61.4389,"MEAN_ANOMALY":298.7017,"EPHEMERIS_TYPE":0,"CLASSIFICATION_TYPE":"U","NORAD_CAT_ID":68383,"ELEMENT_SET_NO":999,"REV_AT_EPOCH":423,"BSTAR":0.00055769041,"MEAN_MOTION_DOT":0.00083906,"MEAN_MOTION_DDOT":0},{"OBJECT_NAME":"STARLINK-37137","OBJECT_ID":"2026-063E","EPOCH":"2026-04-20T14:11:57.382368","MEAN_MOTION":15.75260532,"ECCENTRICITY":0.00024393,"INCLINATION":97.2853,"RA_OF_ASC_NODE":252.3762,"ARG_OF_PERICENTER":11.3253,"MEAN_ANOMALY":348.8067,"EPHEMERIS_TYPE":0,"CLASSIFICATION_TYPE":"U","NORAD_CAT_ID":68384,"ELEMENT_SET_NO":999,"REV_AT_EPOCH":423,"BSTAR":0.0014769435,"MEAN_MOTION_DOT":0.00226818,"MEAN_MOTION_DDOT":0}]
